TRANSPORTER-17 OBJECT BL
1 69927U 26156BL  26201.95439685  .00000657  00000+0  69970-4 0  9995
2 69927  97.7538 102.1965 0009792 110.8493 249.3775 14.92200464  1865
TRANSPORTER-17 OBJECT BM
1 69928U 26156BM  26201.95414663  .00002501  00000+0  25047-3 0  9991
2 69928  97.7575 102.2018 0010241 109.6220 250.6106 14.92249268  2030
TRANSPORTER-17 OBJECT BN
1 69929U 26156BN  26202.02043551  .00002417  00000+0  24175-3 0  9992
2 69929  97.7549 102.2651 0010561 108.4251 251.8117 14.92336143  2046
TRANSPORTER-17 OBJECT BP
1 69930U 26156BP  26201.95313131  .00002505  00000+0  25020-3 0  9997
2 69930  97.7565 102.2024 0010498 111.9944 248.2392 14.92360122  2035
TRANSPORTER-17 OBJECT BQ
1 69931U 26156BQ  26201.95312603  .00000693  00000+0  73266-4 0  9993
2 69931  97.7520 102.1955 0010809 105.1483 255.0933 14.92340194  2032
TRANSPORTER-17 OBJECT BR
1 69932U 26156BR  26202.02011945  .00000524  00000+0  56654-4 0  9993
2 69932  97.7470 102.2536 0011047 102.8920 257.3534 14.92346517  2046
TRANSPORTER-17 OBJECT BS
1 69933U 26156BS  26202.01975708  .00002457  00000+0  24519-3 0  9990
2 69933  97.7552 102.2663 0010971 107.5478 252.6940 14.92404324  2044
TRANSPORTER-17 OBJECT BT
1 69934U 26156BT  26201.95248468  .00002482  00000+0  24746-3 0  9999
2 69934  97.7542 102.1996 0010960 110.3353 249.9045 14.92430912  2030
TRANSPORTER-17 OBJECT BU
1 69935U 26156BU  26201.88489864  .00001776  00000+0  17842-3 0  9993
2 69935  97.7482 102.1245 0011515 105.9317 254.3172 14.92482851  2027
TRANSPORTER-17 OBJECT BV
1 69936U 26156BV  26201.88494992  .00001122  00000+0  11474-3 0  9992
2 69936  97.7481 102.1244 0011461 106.0098 254.2384 14.92469214  2026
TRANSPORTER-17 OBJECT BW
1 69937U 26156BW  26202.25003472 -.00016499  00000+0 -15948-2 0  9998
2 69937  97.7512 102.4940 0012632 104.9344  67.3064 14.92729833  1304
TRANSPORTER-17 OBJECT BX
1 69938U 26156BX  26201.95185756  .00002244  00000+0  22387-3 0  9998
2 69938  97.7495 102.1939 0011585 102.6866 257.5649 14.92498292  2035
TRANSPORTER-17 OBJECT BY
1 69939U 26156BY  26201.88460402  .00000845  00000+0  87688-4 0  9996
2 69939  97.7574 102.1397 0011120 113.8707 246.3678 14.92503874  2025
TRANSPORTER-17 OBJECT BZ
1 69940U 26156BZ  26202.01784459  .00000593  00000+0  63088-4 0  9993
2 69940  97.7557 102.2696 0011858 108.1001 252.1511 14.92594967  2049
TRANSPORTER-17 OBJECT CA
1 69941U 26156CA  26200.94914813  .00003167  00000+0  31647-3 0  9998
2 69941  97.7509 101.2020 0010079 106.2623 253.9706 14.92149735  1885
TRANSPORTER-17 OBJECT CB
1 69942U 26156CB  26202.02217968  .00003235  00000+0  32325-3 0  9997
2 69942  97.7508 102.2575 0009988 103.0387 257.1947 14.92135903  2044
STARLINK-37886          
1 69943U 26157A   26202.18383471  .00265654  00000+0  13003-2 0  9995
2 69943  53.1593 265.8182 0001301 113.2472 246.8687 15.81009662  1882
STARLINK-37937          
1 69944U 26157B   26202.25003472 -.00063627  00000+0 -32077-3 0  9995
2 69944  53.1597 265.4671 0001235 103.8409 282.3210 15.80900944  3136
STARLINK-37903          
1 69945U 26157C   26202.18144567  .00388386  00000+0  18679-2 0  9990
2 69945  53.1592 265.8014 0000770 103.2607 256.8501 15.81060127  1884
STARLINK-37905          
1 69946U 26157D   26202.17805919  .00434239  00000+0  20746-2 0  9992
2 69946  53.1595 265.7786 0001055 131.1333 228.9782 15.81083823  1885
STARLINK-37904          
1 69947U 26157E   26202.17737309  .00377662  00000+0  18203-2 0  9991
2 69947  53.1592 265.7742 0001707 119.0561 241.0633 15.81041810  1888
STARLINK-37891          
1 69948U 26157F   26202.25003472 -.00084832  00000+0 -42975-3 0  9998
2 69948  53.1596 265.4012 0001238 104.4669 313.6884 15.80909243  3132
STARLINK-37923          
1 69949U 26157G   26202.25003472 -.00074664  00000+0 -37731-3 0  9995
2 69949  53.1596 265.3655 0001215 105.5518 329.7060 15.80912785  3134
STARLINK-37895          
1 69950U 26157H   26202.25003472 -.00054966  00000+0 -27649-3 0  9997
2 69950  53.1595 265.3498 0001207 102.5028 340.2291 15.80889902  3132
STARLINK-37841          
1 69951U 26157J   26202.25003472 -.00078609  00000+0 -39765-3 0  9990
2 69951  53.1595 265.3264 0001303  90.0287   4.1112 15.80910370  3131
STARLINK-37899          
1 69952U 26157K   26202.25003472 -.00071311  00000+0 -36015-3 0  9999
2 69952  53.1594 265.3035 0001206 102.7698   2.5248 15.80907810  3133
STARLINK-37900          
1 69953U 26157L   26202.25003472 -.00054848  00000+0 -27573-3 0  9995
2 69953  53.1594 265.2953 0001137 100.7016   8.4272 15.80902190  3135
STARLINK-37882          
1 69954U 26157M   26202.25003472 -.00049633  00000+0 -24910-3 0  9994
2 69954  53.1593 265.2727 0001064 107.9624  11.9834 15.80895714  3133
STARLINK-37928          
1 69955U 26157N   26202.25003472 -.00073434  00000+0 -37112-3 0  9999
2 69955  53.1593 265.2716 0001118 103.1579  17.4706 15.80905098  3135
