OBJECT_NAME,OBJECT_ID,EPOCH,MEAN_MOTION,ECCENTRICITY,INCLINATION,RA_OF_ASC_NODE,ARG_OF_PERICENTER,MEAN_ANOMALY,EPHEMERIS_TYPE,CLASSIFICATION_TYPE,NORAD_CAT_ID,ELEMENT_SET_NO,REV_AT_EPOCH,BSTAR,MEAN_MOTION_DOT,MEAN_MOTION_DDOT
TRANSPORTER-17 OBJECT BL,2026-156BL,2026-07-20T22:54:19.887840,14.92200464,.00097924,97.7538,102.1965,110.8493,249.3775,0,U,69927,999,186,.69970118E-4,.657E-5,0
TRANSPORTER-17 OBJECT BM,2026-156BM,2026-07-20T22:53:58.268832,14.92249268,.00102413,97.7575,102.2018,109.6220,250.6106,0,U,69928,999,203,.25047207E-3,.2501E-4,0
TRANSPORTER-17 OBJECT BN,2026-156BN,2026-07-21T00:29:25.628064,14.92336143,.00105619,97.7549,102.2651,108.4251,251.8117,0,U,69929,999,204,.24174536E-3,.2417E-4,0
TRANSPORTER-17 OBJECT BP,2026-156BP,2026-07-20T22:52:30.545184,14.92360122,.00104988,97.7565,102.2024,111.9944,248.2392,0,U,69930,999,203,.25019531E-3,.2505E-4,0
TRANSPORTER-17 OBJECT BQ,2026-156BQ,2026-07-20T22:52:30.088992,14.92340194,.00108097,97.7520,102.1955,105.1483,255.0933,0,U,69931,999,203,.73265503E-4,.693E-5,0
TRANSPORTER-17 OBJECT BR,2026-156BR,2026-07-21T00:28:58.320480,14.92346517,.00110475,97.7470,102.2536,102.8920,257.3534,0,U,69932,999,204,.56653973E-4,.524E-5,0
TRANSPORTER-17 OBJECT BS,2026-156BS,2026-07-21T00:28:27.011712,14.92404324,.0010971,97.7552,102.2663,107.5478,252.6940,0,U,69933,999,204,.24519468E-3,.2457E-4,0
TRANSPORTER-17 OBJECT BT,2026-156BT,2026-07-20T22:51:34.676352,14.92430912,.00109601,97.7542,102.1996,110.3353,249.9045,0,U,69934,999,203,.24746274E-3,.2482E-4,0
TRANSPORTER-17 OBJECT BU,2026-156BU,2026-07-20T21:14:15.242496,14.92482851,.00115155,97.7482,102.1245,105.9317,254.3172,0,U,69935,999,202,.17842111E-3,.1776E-4,0
TRANSPORTER-17 OBJECT BV,2026-156BV,2026-07-20T21:14:19.673088,14.92469214,.0011461,97.7481,102.1244,106.0098,254.2384,0,U,69936,999,202,.1147361E-3,.1122E-4,0
TRANSPORTER-17 OBJECT BW,2026-156BW,2026-07-21T06:00:02.999808,14.92729833,.00126329,97.7512,102.4940,104.9344,67.3064,0,U,69937,999,130,-.15948015E-2,-.16499E-3,0
TRANSPORTER-17 OBJECT BX,2026-156BX,2026-07-20T22:50:40.493184,14.92498292,.00115854,97.7495,102.1939,102.6866,257.5649,0,U,69938,999,203,.22386864E-3,.2244E-4,0
TRANSPORTER-17 OBJECT BY,2026-156BY,2026-07-20T21:13:49.787328,14.92503874,.00111203,97.7574,102.1397,113.8707,246.3678,0,U,69939,999,202,.87687736E-4,.845E-5,0
TRANSPORTER-17 OBJECT BZ,2026-156BZ,2026-07-21T00:25:41.772576,14.92594967,.00118587,97.7557,102.2696,108.1001,252.1511,0,U,69940,999,204,.63087518E-4,.593E-5,0
TRANSPORTER-17 OBJECT CA,2026-156CA,2026-07-19T22:46:46.398432,14.92149735,.00100795,97.7509,101.2020,106.2623,253.9706,0,U,69941,999,188,.31647084E-3,.3167E-4,0
TRANSPORTER-17 OBJECT CB,2026-156CB,2026-07-21T00:31:56.324352,14.92135903,.00099883,97.7508,102.2575,103.0387,257.1947,0,U,69942,999,204,.3232525E-3,.3235E-4,0
STARLINK-37886,2026-157A,2026-07-21T04:24:43.318944,15.81009662,.00013011,53.1593,265.8182,113.2472,246.8687,0,U,69943,999,188,.13002848E-2,.265654E-2,0
STARLINK-37937,2026-157B,2026-07-21T06:00:02.999808,15.80900944,.00012352,53.1597,265.4671,103.8409,282.3210,0,U,69944,999,313,-.3207718E-3,-.63627E-3,0
STARLINK-37903,2026-157C,2026-07-21T04:21:16.905888,15.81060127,.00007704,53.1592,265.8014,103.2607,256.8501,0,U,69945,999,188,.18679057E-2,.388386E-2,0
STARLINK-37905,2026-157D,2026-07-21T04:16:24.314016,15.81083823,.00010557,53.1595,265.7786,131.1333,228.9782,0,U,69946,999,188,.20746003E-2,.434239E-2,0
STARLINK-37904,2026-157E,2026-07-21T04:15:25.034976,15.81041810,.00017074,53.1592,265.7742,119.0561,241.0633,0,U,69947,999,188,.18203412E-2,.377662E-2,0
STARLINK-37891,2026-157F,2026-07-21T06:00:02.999808,15.80909243,.00012384,53.1596,265.4012,104.4669,313.6884,0,U,69948,999,313,-.42974712E-3,-.84832E-3,0
STARLINK-37923,2026-157G,2026-07-21T06:00:02.999808,15.80912785,.00012153,53.1596,265.3655,105.5518,329.7060,0,U,69949,999,313,-.37730624E-3,-.74664E-3,0
STARLINK-37895,2026-157H,2026-07-21T06:00:02.999808,15.80889902,.00012079,53.1595,265.3498,102.5028,340.2291,0,U,69950,999,313,-.27649048E-3,-.54966E-3,0
STARLINK-37841,2026-157J,2026-07-21T06:00:02.999808,15.80910370,.00013036,53.1595,265.3264,90.0287,4.1112,0,U,69951,999,313,-.39765192E-3,-.78609E-3,0
STARLINK-37899,2026-157K,2026-07-21T06:00:02.999808,15.80907810,.00012063,53.1594,265.3035,102.7698,2.5248,0,U,69952,999,313,-.36014733E-3,-.71311E-3,0
STARLINK-37900,2026-157L,2026-07-21T06:00:02.999808,15.80902190,.00011379,53.1594,265.2953,100.7016,8.4272,0,U,69953,999,313,-.27573253E-3,-.54848E-3,0
STARLINK-37882,2026-157M,2026-07-21T06:00:02.999808,15.80895714,.00010646,53.1593,265.2727,107.9624,11.9834,0,U,69954,999,313,-.24910223E-3,-.49633E-3,0
STARLINK-37928,2026-157N,2026-07-21T06:00:02.999808,15.80905098,.00011185,53.1593,265.2716,103.1579,17.4706,0,U,69955,999,313,-.37111646E-3,-.73434E-3,0
